ORBCOMM FM33            
1 25983U 99065D   26015.13875016  .00000630  00000+0  24014-3 0  9993
2 25983  45.0289  70.8231 0006319  42.8014 317.3326 14.40633092366626
ORBCOMM FM36            
1 25984U 99065E   26014.68151626  .00000576  00000+0  23185-3 0  9994
2 25984  45.0376 168.1259 0002738 262.7235  97.3303 14.38804446364879
ORBCOMM FM35            
1 25985U 99065F   26014.81758770  .00000588  00000+0  24090-3 0  9992
2 25985  45.0379 174.2465 0002849  25.6033 334.4956 14.37707559365231
ORBCOMM FM34            
1 25986U 99065G   26014.71598252  .00000504  00000+0  21338-3 0  9999
2 25986  45.0374 175.2083 0002972 318.7536  41.3088 14.37643404365334
ORBCOMM FM38            
1 33060U 08031A   26015.07876638  .00001129  00000+0  16614-3 0  9996
2 33060  48.4415  24.6654 0005125 241.9532 118.0865 14.82435632946170
ORBCOMM FM41            
1 33061U 08031B   26015.08394843  .00001062  00000+0  15944-3 0  9992
2 33061  48.4450  33.1758 0004220 228.2710 172.3373 14.81981439945650
ORBCOMM FM29            
1 33062U 08031C   26015.11804324  .00001126  00000+0  16687-3 0  9993
2 33062  48.4400  40.5297 0005892 225.3981 176.2289 14.82141195945578
ORBCOMM FM39            
1 33063U 08031D   26015.15436816  .00000867  00000+0  13954-3 0  9990
2 33063  48.4409  67.0484 0006553 194.7047 165.3678 14.80559716945196
